OBJECT_NAME,OBJECT_ID,EPOCH,MEAN_MOTION,ECCENTRICITY,INCLINATION,RA_OF_ASC_NODE,ARG_OF_PERICENTER,MEAN_ANOMALY,EPHEMERIS_TYPE,CLASSIFICATION_TYPE,NORAD_CAT_ID,ELEMENT_SET_NO,REV_AT_EPOCH,BSTAR,MEAN_MOTION_DOT,MEAN_MOTION_DDOT
STARLINK-34773,2025-161K,2026-06-06T22:33:16.002720,15.34408054,.000124,53.1592,238.9937,93.8786,266.2359,0,U,65024,999,4899,.42203E-3,.13913E-3,0
STARLINK-34727,2025-161L,2026-06-07T12:16:12.889920,15.34419568,.0001056,53.1581,236.1601,61.7271,298.3838,0,U,65025,999,4911,.83075E-3,.27814E-3,0
STARLINK-34804,2025-161M,2026-06-06T13:09:43.555392,15.30233503,.0001153,53.1589,241.5259,91.0002,269.1131,0,U,65026,999,4894,.10533489E-2,.31001E-3,0
STARLINK-34655,2025-161N,2026-06-07T11:44:29.084064,15.30194736,.000136,53.1587,237.4416,61.0103,299.1034,0,U,65027,999,4907,.81981E-3,.23996E-3,0
STARLINK-34807,2025-161P,2026-06-06T11:51:51.956640,15.34401072,.00013137,53.1598,241.1866,79.9998,280.1153,0,U,65028,999,4893,.12011869E-2,.40428E-3,0
STARLINK-34731,2025-161Q,2026-06-07T12:22:18.564096,15.34418585,.0000897,53.1584,236.1889,84.8281,275.2824,0,U,65029,999,4909,.97124E-3,.32601E-3,0
STARLINK-34614,2025-161R,2026-06-07T11:38:24.146016,15.30200458,.0001645,53.1590,237.4166,68.9424,291.1753,0,U,65030,999,4907,.76328E-3,.22315E-3,0
STARLINK-34677,2025-161S,2026-06-07T11:32:19.754016,15.30190352,.0001555,53.1591,237.3903,66.8242,293.2922,0,U,65031,999,4797,.82403E-3,.24118E-3,0
STARLINK-34656,2025-161T,2026-06-07T11:29:17.596032,15.30221210,.0001459,53.1599,237.3711,111.5759,248.5397,0,U,65032,999,4907,.63049E-3,.18372E-3,0
STARLINK-34610,2025-161V,2026-06-06T22:37:05.309184,15.30213258,.000134,53.1595,239.7169,94.8969,265.2185,0,U,65034,999,4789,.64766E-3,.18879E-3,0
STARLINK-34286,2025-161W,2026-06-06T13:04:25.752864,15.34424802,.00011388,53.1587,240.7941,86.0765,274.0368,0,U,65035,999,4784,.56662184E-3,.18831E-3,0
STARLINK-34770,2025-161X,2026-06-07T11:24:42.456096,15.30243296,.0004281,53.1593,237.3549,82.3332,277.8155,0,U,65036,999,4797,.98288E-3,.28908E-3,0
STARLINK-34776,2025-161Y,2026-06-06T11:47:49.900128,15.30228961,.00012474,53.1602,241.8763,110.1378,249.9757,0,U,65037,999,4782,.81101708E-3,.23759E-3,0
STARLINK-34827,2025-161Z,2026-06-06T22:39:19.352736,15.34402864,.0001447,53.1597,239.0141,79.4111,280.7054,0,U,65038,999,4790,.401E-3,.13197E-3,0
STARLINK-34721,2025-161AA,2026-06-07T11:48:52.598016,15.30207048,.0001504,53.1585,236.7453,67.5225,292.5935,0,U,65039,999,4798,.103E-2,.30279E-3,0
STARLINK-34819,2025-161AB,2026-06-07T11:46:00.020928,15.30207818,.000156,53.1585,237.4431,69.5155,290.6013,0,U,65040,999,4797,.1058E-2,.31113E-3,0
STARLINK-34820,2025-161AC,2026-06-07T12:19:16.138272,15.34380978,.0001399,53.1591,236.1712,105.3532,254.7626,0,U,65041,999,4799,.64728E-3,.21543E-3,0
STARLINK-34824,2025-161AD,2026-06-06T22:42:21.020832,15.34394150,.0000746,53.1594,239.0265,66.8485,293.2596,0,U,65042,999,4790,.11805E-2,.39714E-3,0
HULIANWANG DIGUI-40,2025-162A,2026-06-07T04:00:52.002720,13.29324905,.0000366,50.0007,301.8808,102.9700,257.1213,0,U,65043,999,4201,.9799E-4,-.79E-6,0
HULIANWANG DIGUI-41,2025-162B,2026-06-07T05:37:06.059424,13.29324468,.0000328,50.0017,301.5923,97.8797,262.2112,0,U,65044,999,4203,.87277E-4,-.84E-6,0
HULIANWANG DIGUI-42,2025-162C,2026-06-07T03:36:45.277920,13.29325080,.0000368,49.9982,301.7320,100.7720,259.3193,0,U,65045,999,4202,.94587E-4,-.8E-6,0
HULIANWANG DIGUI-43,2025-162D,2026-06-07T03:24:42.983424,13.29323684,.0000383,49.9999,301.7326,107.7508,252.3406,0,U,65046,999,4202,.10303E-3,-.76E-6,0
HULIANWANG DIGUI-44,2025-162E,2026-06-07T03:12:12.519072,13.29316243,.0001016,50.0027,301.7541,202.4139,157.6689,0,U,65047,999,4203,.11455E-3,-.71E-6,0
HULIANWANG DIGUI-45,2025-162F,2026-06-07T03:00:42.518304,13.29324686,.0000357,50.0056,301.7874,97.2653,262.8260,0,U,65048,999,4202,.11463E-3,-.71E-6,0
HULIANWANG DIGUI-46,2025-162G,2026-06-07T04:36:57.528000,13.29324617,.0000384,50.0075,301.5194,96.6265,263.4651,0,U,65049,999,4203,.1268E-3,-.65E-6,0
HULIANWANG DIGUI-47,2025-162H,2026-06-07T11:37:57.610848,13.29324162,.0000418,50.0039,300.3103,101.0571,259.0348,0,U,65050,999,4207,.95495E-4,-.8E-6,0
HULIANWANG DIGUI-48,2025-162J,2026-06-07T11:25:57.281088,13.29325051,.0000374,50.0049,300.2911,102.7755,257.3159,0,U,65051,999,4207,.85419E-4,-.84E-6,0
NISAR,2025-163A,2026-06-07T05:54:10.683072,14.42505988,.0001216,98.4053,346.0564,89.7525,270.3804,0,U,65053,999,4495,.75906E-4,.208E-5,0
PRSC-S1,2025-164A,2026-06-07T12:25:55.367616,15.06369335,.0007598,41.1315,342.2657,287.2657,72.7325,0,U,65055,999,4697,.40015E-3,.5825E-4,0
STARLINK-34788,2025-165A,2026-06-07T11:56:18.542976,15.05648639,.0001542,97.3911,235.0591,111.8799,248.2593,0,U,65056,999,4830,.32754E-3,.4671E-4,0
