STARLINK-34773          
1 65024U 25161K   26157.93976855  .00013913  00000+0  42203-3 0  9995
2 65024  53.1592 238.9937 0001240  93.8786 266.2359 15.34408054 48990
STARLINK-34727          
1 65025U 25161L   26158.51126030  .00027814  00000+0  83075-3 0  9990
2 65025  53.1581 236.1601 0001056  61.7271 298.3838 15.34419568 49110
STARLINK-34804          
1 65026U 25161M   26157.54842078  .00031001  00000+0  10533-2 0  9991
2 65026  53.1589 241.5259 0001153  91.0002 269.1131 15.30233503 48945
STARLINK-34655          
1 65027U 25161N   26158.48922551  .00023996  00000+0  81981-3 0  9991
2 65027  53.1587 237.4416 0001360  61.0103 299.1034 15.30194736 49076
STARLINK-34807          
1 65028U 25161P   26157.49435135  .00040428  00000+0  12012-2 0  9996
2 65028  53.1598 241.1866 0001313  79.9998 280.1153 15.34401072 48932
STARLINK-34731          
1 65029U 25161Q   26158.51549264  .00032601  00000+0  97124-3 0  9992
2 65029  53.1584 236.1889 0000897  84.8281 275.2824 15.34418585 49098
STARLINK-34614          
1 65030U 25161R   26158.48500169  .00022315  00000+0  76328-3 0  9995
2 65030  53.1590 237.4166 0001645  68.9424 291.1753 15.30200458 49073
STARLINK-34677          
1 65031U 25161S   26158.48078419  .00024118  00000+0  82403-3 0  9998
2 65031  53.1591 237.3903 0001555  66.8242 293.2922 15.30190352 47977
STARLINK-34656          
1 65032U 25161T   26158.47867588  .00018372  00000+0  63049-3 0  9991
2 65032  53.1599 237.3711 0001459 111.5759 248.5397 15.30221210 49077
STARLINK-34610          
1 65034U 25161V   26157.94242256  .00018879  00000+0  64766-3 0  9992
2 65034  53.1595 239.7169 0001340  94.8969 265.2185 15.30213258 47895
STARLINK-34286          
1 65035U 25161W   26157.54474251  .00018831  00000+0  56662-3 0  9995
2 65035  53.1587 240.7941 0001138  86.0765 274.0368 15.34424802 47848
STARLINK-34770          
1 65036U 25161X   26158.47549139  .00028908  00000+0  98288-3 0  9993
2 65036  53.1593 237.3549 0004281  82.3332 277.8155 15.30243296 47974
STARLINK-34776          
1 65037U 25161Y   26157.49154977  .00023759  00000+0  81102-3 0  9993
2 65037  53.1602 241.8763 0001247 110.1378 249.9757 15.30228961 47827
STARLINK-34827          
1 65038U 25161Z   26157.94397399  .00013197  00000+0  40100-3 0  9999
2 65038  53.1597 239.0141 0001447  79.4111 280.7054 15.34402864 47906
STARLINK-34721          
1 65039U 25161AA  26158.49227544  .00030279  00000+0  10300-2 0  9993
2 65039  53.1585 236.7453 0001504  67.5225 292.5935 15.30207048 47982
STARLINK-34819          
1 65040U 25161AB  26158.49027802  .00031113  00000+0  10580-2 0  9998
2 65040  53.1585 237.4431 0001560  69.5155 290.6013 15.30207818 47974
STARLINK-34820          
1 65041U 25161AC  26158.51338123  .00021543  00000+0  64728-3 0  9993
2 65041  53.1591 236.1712 0001399 105.3532 254.7626 15.34380978 47994
STARLINK-34824          
1 65042U 25161AD  26157.94607663  .00039714  00000+0  11805-2 0  9994
2 65042  53.1594 239.0265 0000746  66.8485 293.2596 15.34394150 47908
HULIANWANG DIGUI-40     
1 65043U 25162A   26158.16726855 -.00000079  00000+0  97990-4 0  9990
2 65043  50.0007 301.8808 0000366 102.9700 257.1213 13.29324905 42010
HULIANWANG DIGUI-41     
1 65044U 25162B   26158.23409791 -.00000084  00000+0  87277-4 0  9999
2 65044  50.0017 301.5923 0000328  97.8797 262.2112 13.29324468 42034
HULIANWANG DIGUI-42     
1 65045U 25162C   26158.15052405 -.00000080  00000+0  94587-4 0  9995
2 65045  49.9982 301.7320 0000368 100.7720 259.3193 13.29325080 42026
HULIANWANG DIGUI-43     
1 65046U 25162D   26158.14216416 -.00000076  00000+0  10303-3 0  9997
2 65046  49.9999 301.7326 0000383 107.7508 252.3406 13.29323684 42027
HULIANWANG DIGUI-44     
1 65047U 25162E   26158.13347823 -.00000071  00000+0  11455-3 0  9998
2 65047  50.0027 301.7541 0001016 202.4139 157.6689 13.29316243 42033
HULIANWANG DIGUI-45     
1 65048U 25162F   26158.12549211 -.00000071  00000+0  11463-3 0  9992
2 65048  50.0056 301.7874 0000357  97.2653 262.8260 13.29324686 42026
HULIANWANG DIGUI-46     
1 65049U 25162G   26158.19233250 -.00000065  00000+0  12680-3 0  9998
2 65049  50.0075 301.5194 0000384  96.6265 263.4651 13.29324617 42039
HULIANWANG DIGUI-47     
1 65050U 25162H   26158.48469457 -.00000080  00000+0  95495-4 0  9995
2 65050  50.0039 300.3103 0000418 101.0571 259.0348 13.29324162 42070
HULIANWANG DIGUI-48     
1 65051U 25162J   26158.47635742 -.00000084  00000+0  85419-4 0  9996
2 65051  50.0049 300.2911 0000374 102.7755 257.3159 13.29325051 42070
NISAR                   
1 65053U 25163A   26158.24595698  .00000208  00000+0  75906-4 0  9996
2 65053  98.4053 346.0564 0001216  89.7525 270.3804 14.42505988 44956
PRSC-S1                 
1 65055U 25164A   26158.51800194  .00005825  00000+0  40015-3 0  9991
2 65055  41.1315 342.2657 0007598 287.2657  72.7325 15.06369335 46976
STARLINK-34788          
1 65056U 25165A   26158.49743684  .00004671  00000+0  32754-3 0  9999
2 65056  97.3911 235.0591 0001542 111.8799 248.2593 15.05648639 48302
